{
  "type": "FeatureCollection",
  "features": [
    {
      "type": "Feature",
      "properties": {
        "norad_id": 30298,
        "name": "FENGYUN 1C DEB",
        "group": "fengyun-1c-debris",
        "lat": -49.49433744847492,
        "lon": -123.10734848767936,
        "alt_km": 823.370926054703,
        "timestamp": "2025-12-02T19:35:50.831167+00:00",
        "meta_object_name": "FENGYUN 1C DEB",
        "meta_object_id": "1999-025ZK",
        "meta_epoch": "2025-12-02T05:07:44.980320",
        "meta_mean_motion": 14.19792862,
        "meta_eccentricity": 0.00494038,
        "meta_inclination": 99.0029,
        "meta_ra_of_asc_node": 66.9751,
        "meta_arg_of_pericenter": 157.1709,
        "meta_mean_anomaly": 232.9591,
        "meta_ephemeris_type": 0,
        "meta_classification_type": "U",
        "meta_norad_cat_id": 30298,
        "meta_element_set_no": 999,
        "meta_rev_at_epoch": 96685,
        "meta_bstar": 0.0023745798,
        "meta_mean_motion_dot": 5.05e-05,
        "meta_mean_motion_ddot": 0,
        "tle_line1": "1 30298U 99025ZK  25336.21371505  .00005050  00000+0  23746-2 0  9993",
        "tle_line2": "2 30298  99.0029  66.9751 0049403 157.1709 232.9591 14.19792862966851"
      },
      "geometry": {
        "type": "Point",
        "coordinates": [
          -123.10734848767936,
          -49.49433744847492
        ]
      }
    },
    {
      "type": "Feature",
      "properties": {
        "norad_id": 30299,
        "name": "FENGYUN 1C DEB",
        "group": "fengyun-1c-debris",
        "lat": 15.790529274900178,
        "lon": -128.42596567301922,
        "alt_km": 913.5473756705424,
        "timestamp": "2025-12-02T19:35:50.831177+00:00",
        "meta_object_name": "FENGYUN 1C DEB",
        "meta_object_id": "1999-025ZL",
        "meta_epoch": "2025-12-02T03:37:15.468672",
        "meta_mean_motion": 14.07669851,
        "meta_eccentricity": 0.01036807,
        "meta_inclination": 99.095,
        "meta_ra_of_asc_node": 48.3075,
        "meta_arg_of_pericenter": 37.9331,
        "meta_mean_anomaly": 353.4274,
        "meta_ephemeris_type": 0,
        "meta_classification_type": "U",
        "meta_norad_cat_id": 30299,
        "meta_element_set_no": 999,
        "meta_rev_at_epoch": 96141,
        "meta_bstar": 0.0016417892,
        "meta_mean_motion_dot": 2.87e-05,
        "meta_mean_motion_ddot": 0,
        "tle_line1": "1 30299U 99025ZL  25336.15087348  .00002870  00000+0  16418-2 0  9991",
        "tle_line2": "2 30299  99.0950  48.3075 0103680  37.9331 353.4274 14.07669851961414"
      },
      "geometry": {
        "type": "Point",
        "coordinates": [
          -128.42596567301922,
          15.790529274900178
        ]
      }
    },
    {
      "type": "Feature",
      "properties": {
        "norad_id": 30300,
        "name": "FENGYUN 1C DEB",
        "group": "fengyun-1c-debris",
        "lat": 16.60543159212903,
        "lon": 43.1096673959706,
        "alt_km": 771.339815082355,
        "timestamp": "2025-12-02T19:35:50.831187+00:00",
        "meta_object_name": "FENGYUN 1C DEB",
        "meta_object_id": "1999-025ZM",
        "meta_epoch": "2025-11-30T03:41:45.033216",
        "meta_mean_motion": 14.26637028,
        "meta_eccentricity": 0.00746498,
        "meta_inclination": 99.0435,
        "meta_ra_of_asc_node": 43.0822,
        "meta_arg_of_pericenter": 331.0155,
        "meta_mean_anomaly": 58.0965,
        "meta_ephemeris_type": 0,
        "meta_classification_type": "U",
        "meta_norad_cat_id": 30300,
        "meta_element_set_no": 999,
        "meta_rev_at_epoch": 96805,
        "meta_bstar": 0.0023442456,
        "meta_mean_motion_dot": 5.789e-05,
        "meta_mean_motion_ddot": 0,
        "tle_line1": "1 30300U 99025ZM  25334.15399344  .00005789  00000+0  23442-2 0  9991",
        "tle_line2": "2 30300  99.0435  43.0822 0074649 331.0155  58.0965 14.26637028968055"
      },
      "geometry": {
        "type": "Point",
        "coordinates": [
          43.1096673959706,
          16.60543159212903
        ]
      }
    },
    {
      "type": "Feature",
      "properties": {
        "norad_id": 30301,
        "name": "FENGYUN 1C DEB",
        "group": "fengyun-1c-debris",
        "lat": -30.456570682062726,
        "lon": 132.7707261362513,
        "alt_km": 675.7413297774683,
        "timestamp": "2025-12-02T19:35:50.831198+00:00",
        "meta_object_name": "FENGYUN 1C DEB",
        "meta_object_id": "1999-025ZN",
        "meta_epoch": "2025-12-02T03:27:58.104864",
        "meta_mean_motion": 14.52430998,
        "meta_eccentricity": 0.00685004,
        "meta_inclination": 98.6355,
        "meta_ra_of_asc_node": 126.9525,
        "meta_arg_of_pericenter": 321.1796,
        "meta_mean_anomaly": 95.5212,
        "meta_ephemeris_type": 0,
        "meta_classification_type": "U",
        "meta_norad_cat_id": 30301,
        "meta_element_set_no": 999,
        "meta_rev_at_epoch": 97063,
        "meta_bstar": 0.0042004274,
        "meta_mean_motion_dot": 0.0001765,
        "meta_mean_motion_ddot": 0,
        "tle_line1": "1 30301U 99025ZN  25336.14442251  .00017650  00000+0  42004-2 0  9994",
        "tle_line2": "2 30301  98.6355 126.9525 0068500 321.1796  95.5212 14.52430998970637"
      },
      "geometry": {
        "type": "Point",
        "coordinates": [
          132.7707261362513,
          -30.456570682062726
        ]
      }
    },
    {
      "type": "Feature",
      "properties": {
        "norad_id": 30302,
        "name": "FENGYUN 1C DEB",
        "group": "fengyun-1c-debris",
        "lat": 59.588103114362276,
        "lon": -129.89768212088504,
        "alt_km": 837.8788581236549,
        "timestamp": "2025-12-02T19:35:50.831208+00:00",
        "meta_object_name": "FENGYUN 1C DEB",
        "meta_object_id": "1999-025ZP",
        "meta_epoch": "2025-11-29T23:18:50.228352",
        "meta_mean_motion": 14.12670881,
        "meta_eccentricity": 0.01037294,
        "meta_inclination": 98.5513,
        "meta_ra_of_asc_node": 242.2381,
        "meta_arg_of_pericenter": 154.5235,
        "meta_mean_anomaly": 206.1103,
        "meta_ephemeris_type": 0,
        "meta_classification_type": "U",
        "meta_norad_cat_id": 30302,
        "meta_element_set_no": 999,
        "meta_rev_at_epoch": 95863,
        "meta_bstar": 0.0022401364,
        "meta_mean_motion_dot": 4.33e-05,
        "meta_mean_motion_ddot": 0,
        "tle_line1": "1 30302U 99025ZP  25333.97141468  .00004330  00000+0  22401-2 0  9999",
        "tle_line2": "2 30302  98.5513 242.2381 0103729 154.5235 206.1103 14.12670881958632"
      },
      "geometry": {
        "type": "Point",
        "coordinates": [
          -129.89768212088504,
          59.588103114362276
        ]
      }
    },
    {
      "type": "Feature",
      "properties": {
        "norad_id": 30303,
        "name": "FENGYUN 1C DEB",
        "group": "fengyun-1c-debris",
        "lat": -77.92509654081708,
        "lon": -174.1161007252239,
        "alt_km": 778.3639977025077,
        "timestamp": "2025-12-02T19:35:50.831219+00:00",
        "meta_object_name": "FENGYUN 1C DEB",
        "meta_object_id": "1999-025ZQ",
        "meta_epoch": "2025-12-01T03:37:30.484992",
        "meta_mean_motion": 14.25619112,
        "meta_eccentricity": 0.00751926,
        "meta_inclination": 99.0202,
        "meta_ra_of_asc_node": 52.1197,
        "meta_arg_of_pericenter": 316.269,
        "meta_mean_anomaly": 43.2547,
        "meta_ephemeris_type": 0,
        "meta_classification_type": "U",
        "meta_norad_cat_id": 30303,
        "meta_element_set_no": 999,
        "meta_rev_at_epoch": 96870,
        "meta_bstar": 0.0024223705,
        "meta_mean_motion_dot": 5.867e-05,
        "meta_mean_motion_ddot": 0,
        "tle_line1": "1 30303U 99025ZQ  25335.15104728  .00005867  00000+0  24224-2 0  9991",
        "tle_line2": "2 30303  99.0202  52.1197 0075192 316.2690  43.2547 14.25619112968706"
      },
      "geometry": {
        "type": "Point",
        "coordinates": [
          -174.1161007252239,
          -77.92509654081708
        ]
      }
    },
    {
      "type": "Feature",
      "properties": {
        "norad_id": 30304,
        "name": "FENGYUN 1C DEB",
        "group": "fengyun-1c-debris",
        "lat": 65.31151046813704,
        "lon": 28.869272150224443,
        "alt_km": 781.5357966283518,
        "timestamp": "2025-12-02T19:35:50.831230+00:00",
        "meta_object_name": "FENGYUN 1C DEB",
        "meta_object_id": "1999-025ZR",
        "meta_epoch": "2025-12-02T04:00:59.398560",
        "meta_mean_motion": 14.15404097,
        "meta_eccentricity": 0.00745669,
        "meta_inclination": 99.0352,
        "meta_ra_of_asc_node": 48.4621,
        "meta_arg_of_pericenter": 79.1646,
        "meta_mean_anomaly": 281.7908,
        "meta_ephemeris_type": 0,
        "meta_classification_type": "U",
        "meta_norad_cat_id": 30304,
        "meta_element_set_no": 999,
        "meta_rev_at_epoch": 96669,
        "meta_bstar": 0.0015541287,
        "meta_mean_motion_dot": 3.069e-05,
        "meta_mean_motion_ddot": 0,
        "tle_line1": "1 30304U 99025ZR  25336.16735415  .00003069  00000+0  15541-2 0  9991",
        "tle_line2": "2 30304  99.0352  48.4621 0074566  79.1646 281.7908 14.15404097966692"
      },
      "geometry": {
        "type": "Point",
        "coordinates": [
          28.869272150224443,
          65.31151046813704
        ]
      }
    }
  ]
}